     2.100          NAVIGATION                              RINEX VERSION / TYPE
fic2rin                                 04/20/2015 00:19:20 PGM / RUN BY / DATE
                                                            END OF HEADER
27 15  4 19  6  0  0.0  .660126097500D-04  .272848410532D-11  .000000000000D+00
     .280000000000D+02  .480312500000D+02  .454304637897D-08 -.778953630362D+00
     .248290598392D-05  .233507074881D-02  .101570039988D-04  .515368615150D+04
     .216000000000D+05  .763684511185D-07 -.235603229500D+01 -.558793544769D-08
     .966878046054D+00  .185406250000D+03  .167337480541D+00 -.800461913880D-08
     .780746806953D-09  .100000000000D+01  .184100000000D+04  .000000000000D+00
     .240000000000D+01  .000000000000D+00  .139698386192D-08  .280000000000D+02
     .144060000000D+05  .400000000000D+01
28 15  4 19  6  0  0.0  .433985143900D-03  .261479726760D-11  .000000000000D+00
     .150000000000D+02 -.987500000000D+02  .371122601603D-08 -.504402889262D-01
    -.527687370777D-05  .195328580448D-01  .118408352137D-04  .515369751549D+04
     .216000000000D+05 -.355765223503D-06  .295352453107D+01  .875443220139D-07
     .989059658465D+00  .173156250000D+03 -.166485963910D+01 -.790961518151D-08
    -.346443002170D-10  .100000000000D+01  .184100000000D+04  .000000000000D+00
     .240000000000D+01  .000000000000D+00 -.111758708954D-07  .150000000000D+02
     .144060000000D+05  .400000000000D+01
29 15  4 19  6  0  0.0  .605203211308D-03  .227373675443D-11  .000000000000D+00
     .740000000000D+02  .616562500000D+02  .449125850752D-08  .183735817759D+01
     .302493572235D-05  .136024306994D-02  .932440161705D-05  .515377271271D+04
     .216000000000D+05  .186264514923D-07 -.229916899110D+01  .558793544769D-07
     .972784018965D+00  .209468750000D+03 -.674664633324D+00 -.797104631179D-08
     .718601361203D-09  .100000000000D+01  .184100000000D+04  .000000000000D+00
     .240000000000D+01  .000000000000D+00 -.977888703346D-08  .740000000000D+02
     .144060000000D+05  .400000000000D+01
30 15  4 19  6  0  0.0 -.697937794030D-04  .409272615798D-11  .000000000000D+00
     .730000000000D+02 -.494375000000D+02  .499270796633D-08  .284498934116D+01
    -.256486237049D-05  .124664127361D-02  .990927219391D-06  .515374689674D+04
     .216000000000D+05  .447034835815D-07  .191131280900D+01  .186264514923D-07
     .956046413342D+00  .357468750000D+03  .284657679306D+01 -.865036032223D-08
    -.188579283656D-09  .100000000000D+01  .184100000000D+04  .000000000000D+00
     .240000000000D+01  .000000000000D+00  .325962901115D-08  .730000000000D+02
     .144060000000D+05  .400000000000D+01
31 15  4 19  6  0  0.0  .318228267133D-03 -.909494701773D-12  .000000000000D+00
     .930000000000D+02 -.523437500000D+02  .456233289662D-08  .251654631893D+01
    -.261329114437D-05  .814672873821D-02  .145286321640D-05  .515376077843D+04
     .216000000000D+05 -.279396772385D-07  .186900875988D+01  .856816768646D-07
     .975188888052D+00  .361218750000D+03 -.520205440073D+00 -.838142054838D-08
    -.262868092368D-09  .100000000000D+01  .184100000000D+04  .000000000000D+00
     .240000000000D+01  .000000000000D+00 -.135041773319D-07  .930000000000D+02
     .144060000000D+05  .400000000000D+01
32 15  4 19  6  0  0.0 -.172427389771D-03  .954969436862D-11  .000000000000D+00
     .970000000000D+02  .240625000000D+01  .445982862691D-08 -.312078176470D+01
    -.949949026108D-07  .112578287954D-01  .143703073263D-04  .515379542542D+04
     .216000000000D+05 -.160187482834D-06 -.175896728953D+00 -.279396772385D-07
     .947511591272D+00  .902500000000D+02  .365677586225D-01 -.777032366517D-08
    -.612168356412D-09  .100000000000D+01  .184100000000D+04  .000000000000D+00
     .240000000000D+01  .000000000000D+00 -.372529029846D-08  .970000000000D+02
     .144060000000D+05  .400000000000D+01
 5 15  4 19  5 59 44.0 -.252018682659D-03  .477484718431D-11  .000000000000D+00
     .000000000000D+00 -.112812500000D+02  .463233581252D-08 -.111656755729D+00
    -.679865479469D-06  .401483650785D-02  .120624899864D-04  .515381968880D+04
     .215840000000D+05  .558793544769D-08 -.264714403240D+00  .707805156708D-07
     .947009861573D+00  .138093750000D+03  .396727311479D+00 -.810212320024D-08
    -.611454040944D-09  .100000000000D+01  .184100000000D+04  .000000000000D+00
     .240000000000D+01  .000000000000D+00 -.107102096081D-07  .000000000000D+00
     .166260000000D+05  .400000000000D+01
21 15  4 19  5 59 44.0 -.437992624938D-03 -.363797880709D-11  .000000000000D+00
     .220000000000D+02 -.334062500000D+02  .585988694496D-08  .169085658722D+01
    -.219792127609D-05  .225319514284D-01  .423938035965D-05  .515357147217D+04
     .215840000000D+05 -.277534127235D-06 -.132063540273D+01 -.549480319023D-06
     .933337644254D+00  .289875000000D+03 -.191951028217D+01 -.878858036536D-08
    -.224295057075D-09  .100000000000D+01  .184100000000D+04  .000000000000D+00
     .240000000000D+01  .000000000000D+00 -.116415321827D-07  .220000000000D+02
     .167160000000D+05  .400000000000D+01
18 15  4 19  5 59 44.0  .395036768168D-03  .284217094304D-11  .000000000000D+00
     .100000000000D+01 -.575000000000D+01  .529986361774D-08  .609510353856D+00
    -.134110450745D-06  .160788784269D-01  .124722719193D-04  .515377547264D+04
     .215840000000D+05 -.165775418282D-06 -.277026482716D+00  .670552253723D-07
     .925572678434D+00  .126625000000D+03 -.197654530631D+01 -.859250076929D-08
    -.722172938544D-09  .100000000000D+01  .184100000000D+04  .000000000000D+00
     .240000000000D+01  .000000000000D+00 -.111758708954D-07  .100000000000D+01
     .199560000000D+05  .400000000000D+01
13 15  4 19  5 59 44.0 -.106967519969D-03 -.341060513165D-11  .000000000000D+00
     .330000000000D+02  .124062500000D+03  .408838458334D-08 -.285849930623D+01
     .647269189358D-05  .526671425905D-02  .671111047268D-05  .515369011497D+04
     .215840000000D+05  .745058059692D-08  .899347567768D+00  .428408384323D-07
     .974541476581D+00  .259125000000D+03  .207581092062D+01 -.798604693662D-08
     .320013329840D-09  .100000000000D+01  .184100000000D+04  .000000000000D+00
     .240000000000D+01  .000000000000D+00 -.111758708954D-07  .330000000000D+02
     .200460000000D+05  .400000000000D+01
 5 15  4 19  7 59 44.0 -.251984223723D-03  .477484718431D-11  .000000000000D+00
     .100000000000D+01 -.254062500000D+02  .478519932276D-08  .938588418581D+00
    -.102445483208D-05  .401296676137D-02  .121779739857D-04  .515381598091D+04
     .287840000000D+05 -.316649675369D-07 -.264772759042D+00  .447034835815D-07
     .947005434783D+00  .135906250000D+03  .396576579715D+00 -.810569477758D-08
    -.623240246172D-09  .100000000000D+01  .184100000000D+04  .000000000000D+00
     .240000000000D+01  .000000000000D+00 -.107102096081D-07  .100000000000D+01
     .216060000000D+05  .400000000000D+01
13 15  4 19  7 59 44.0 -.106991734356D-03 -.341060513165D-11  .000000000000D+00
     .420000000000D+02  .125937500000D+03  .424124809358D-08 -.180857515759D+01
     .650249421597D-05  .526756478939D-02  .713951885700D-05  .515368726730D+04
     .287840000000D+05 -.113621354103D-06  .899289864427D+00  .856816768646D-07
     .974543214528D+00  .247531250000D+03  .207605545762D+01 -.810176604250D-08
     .307869966877D-09  .100000000000D+01  .184100000000D+04  .000000000000D+00
     .240000000000D+01  .000000000000D+00 -.111758708954D-07  .420000000000D+02
     .216060000000D+05  .400000000000D+01
18 15  4 19  7 59 44.0  .395057257265D-03  .284217094304D-11  .000000000000D+00
     .200000000000D+01 -.244375000000D+02  .514307137242D-08  .165947995829D+01
    -.147148966789D-05  .160798556171D-01  .124108046293D-04  .515378051186D+04
     .287840000000D+05 -.271946191788D-06 -.277088937615D+00 -.303611159325D-06
     .925568967011D+00  .127093750000D+03 -.197639163262D+01 -.830427447779D-08
    -.547522806523D-09  .100000000000D+01  .184100000000D+04  .000000000000D+00
     .240000000000D+01  .000000000000D+00 -.111758708954D-07  .200000000000D+01
     .216060000000D+05  .400000000000D+01
21 15  4 19  7 59 44.0 -.438019167632D-03 -.363797880709D-11  .000000000000D+00
     .230000000000D+02 -.272187500000D+02  .571630953581D-08  .274104513197D+01
    -.160746276379D-05  .225309896050D-01  .323541462421D-05  .515357463455D+04
     .287840000000D+05  .134110450745D-06 -.132069649272D+01 -.339001417160D-06
     .933337442371D+00  .300718750000D+03 -.191944787847D+01 -.841999358367D-08
    -.266796827444D-09  .100000000000D+01  .184100000000D+04  .000000000000D+00
     .240000000000D+01  .000000000000D+00 -.116415321827D-07  .230000000000D+02
     .216060000000D+05  .400000000000D+01
 1 15  4 19  8  0  0.0 -.660214573145D-05  .454747350886D-12  .000000000000D+00
     .900000000000D+01 -.215937500000D+02  .521771733887D-08 -.193080260387D+01
    -.123120844364D-05  .409252196550D-02  .435113906860D-05  .515365389633D+04
     .288000000000D+05  .447034835815D-07 -.129885853440D+01 -.521540641785D-07
     .961668869803D+00  .295937500000D+03  .374156839351D+00 -.842142221461D-08
    -.135719938995D-09  .100000000000D+01  .184100000000D+04  .000000000000D+00
     .240000000000D+01  .000000000000D+00  .558793544769D-08  .900000000000D+01
     .216060000000D+05  .400000000000D+01
 2 15  4 19  8  0  0.0  .560682266951D-03  .238742359215D-11  .000000000000D+00
     .490000000000D+02 -.154687500000D+02  .568773691707D-08 -.146523455592D+01
    -.610947608948D-06  .146215427667D-01  .311434268951D-05  .515379322624D+04
     .288000000000D+05  .275671482086D-06 -.133559904316D+01  .279396772385D-07
     .940278309863D+00  .304312500000D+03 -.228036660827D+01 -.862893085818D-08
     .964325882329D-11  .100000000000D+01  .184100000000D+04  .000000000000D+00
     .240000000000D+01  .000000000000D+00 -.204890966415D-07  .490000000000D+02
     .216060000000D+05  .400000000000D+01
